STARLINK-36847          
1 67910U 26036G   26078.25002315  .00086697  00000+0  14682-2 0  9999
2 67910  43.0002 192.5986 0001742 312.1973 240.1453 15.50561943  5186
STARLINK-36736          
1 67911U 26036H   26078.25002315 -.01796020  00000+0 -31549-1 0  9991
2 67911  43.0001 192.0410 0001814 269.3942 149.0124 15.53040616  5186
STARLINK-36676          
1 67912U 26036J   26078.25002315  .00097688  00000+0  16579-2 0  9990
2 67912  43.0007 192.1634 0001430 245.8720 122.3541 15.50449765  5181
STARLINK-36690          
1 67913U 26036K   26078.25002315  .00087030  00000+0  14768-2 0  9999
2 67913  43.0003 192.1504 0001347 271.4956 102.1149 15.50503737  5187
STARLINK-36724          
1 67914U 26036L   26078.25002315 -.00607004  00000+0 -11015-1 0  9992
2 67914  43.0007 192.1036 0001193 261.8701 130.4866 15.50962599  5187
STARLINK-36723          
1 67915U 26036M   26078.25002315 -.02149931  00000+0 -38028-1 0  9998
2 67915  43.0008 192.0298 0001354 278.6928 143.9312 15.52917195  5183
STARLINK-36721          
1 67916U 26036N   26078.25002315 -.02155988  00000+0 -38090-1 0  9997
2 67916  43.0008 192.0059 0001275 277.8508 154.2103 15.52959756  5188
STARLINK-36722          
1 67917U 26036P   26078.25002315 -.01876093  00000+0 -29832-1 0  9998
2 67917  43.0004 191.8101 0001285 277.3942 233.5186 15.55886804  5186
STARLINK-36341          
1 67918U 26036Q   26078.25002315 -.00036197  00000+0 -61363-3 0  9998
2 67918  43.0011 192.9342 0001839 269.4436 145.2501 15.50595655  5185
STARLINK-36663          
1 67919U 26036R   26078.25002315 -.02405760  00000+0 -42336-1 0  9994
2 67919  43.0008 191.9665 0000831 296.9078 150.8058 15.53488578  5184
STARLINK-36375          
1 67920U 26036S   26078.25002315 -.00059164  00000+0 -10092-2 0  9992
2 67920  43.0004 192.3302 0001724 256.4968  44.2347 15.50608947  5184
STARLINK-36405          
1 67921U 26036T   26078.25002315  .00077157  00000+0  13108-2 0  9994
2 67921  43.0010 192.9006 0002058 262.4973 166.5098 15.50520897  5181
